STARLINK-5751           
1 55576U 23020H   26139.72043747 -.00004974  00000+0 -17128-3 0  9997
2 55576  43.0016 298.2690 0001010 249.1612 110.9132 15.27591091180070
STARLINK-5752           
1 55577U 23020J   26139.85324850  .00001022  00000+0  46676-4 0  9999
2 55577  43.0009 323.4611 0001713 257.8773 102.1887 15.27579136179794
STARLINK-5754           
1 55579U 23020L   26139.89809608  .00001065  00000+0  48231-4 0  9990
2 55579  43.0064 323.0155 0001386 273.7013  86.3680 15.27572383179809
STARLINK-5757           
1 55580U 23020M   26140.12303247  .00001705  00000+0  71474-4 0  9994
2 55580  43.0025 296.1299 0001339 272.1631  87.9067 15.27580578180133
STARLINK-5753           
1 55581U 23020N   26140.23302854 -.00000017  00000+0  88979-5 0  9995
2 55581  43.0007 328.0554 0001217 281.4519  78.6196 15.27577560179771
STARLINK-5741           
1 55582U 23020P   26140.18406537  .00000330  00000+0  21530-4 0  9999
2 55582  43.0026 310.4562 0001149 262.1048  97.9673 15.27575834179972
STARLINK-5742           
1 55583U 23020Q   26139.87496319 -.00000179  00000+0  30295-5 0  9992
2 55583  43.0036 322.8469 0001297 261.6790  98.3914 15.27573904179800
STARLINK-5736           
1 55584U 23020R   26140.19561454  .00000738  00000+0  36334-4 0  9992
2 55584  43.0034 321.8077 0001013 256.0529 104.0210 15.27576974179845
STARLINK-5769           
1 55585U 23020S   26139.75077784 -.00000373  00000+0 -40028-5 0  9994
2 55585  43.0052 313.2289 0002305 272.4073  87.6515 15.27585024179904
STARLINK-5767           
1 55586U 23020T   26139.85197927 -.00000266  00000+0 -12891-6 0  9997
2 55586  43.0016 323.5286 0001387 261.6554  98.4140 15.27582069179796
STARLINK-5727           
1 55587U 23020U   26139.84554054  .00001288  00000+0  56328-4 0  9999
2 55587  43.0038 323.4055 0001482 267.0265  93.0417 15.27577113179791
STARLINK-5728           
1 55588U 23020V   26139.84812427  .00001107  00000+0  49749-4 0  9990
2 55588  43.0037 323.5026 0001587 265.1829  94.8841 15.27574232179790
STARLINK-5697           
1 55589U 23020W   26140.22887539  .00000067  00000+0  11986-4 0  9997
2 55589  43.0059 321.1974 0001817 273.3173  86.7471 15.27575259179856
STARLINK-5762           
1 55590U 23020X   26140.22245227  .00000726  00000+0  35901-4 0  9996
2 55590  43.0034 321.1572 0001236 274.8373  85.2337 15.27576901179858
STARLINK-5760           
1 55591U 23020Y   26139.84427410  .00002315  00000+0  93631-4 0  9999
2 55591  43.0053 323.4736 0001430 265.2120  94.8568 15.27584874179790
STARLINK-5759           
1 55592U 23020Z   26140.20446240  .00000584  00000+0  30735-4 0  9996
2 55592  43.0033 321.0170 0000982 264.9204  95.1536 15.27576686179853
STARLINK-5703           
1 55593U 23020AA  26139.87367874 -.00002716  00000+0 -89199-4 0  9992
2 55593  43.0031 322.8369 0001249 272.5274  87.5435 15.27582134179803
STARLINK-5750           
1 55594U 23020AB  26140.20831515  .00000810  00000+0  38956-4 0  9996
2 55594  43.0037 321.0470 0001122 269.5060  90.5663 15.27576543179852
STARLINK-5729           
1 55596U 23020AD  26140.21859780 -.00000048  00000+0  77738-5 0  9999
2 55596  43.0034 321.1237 0001147 279.6055  80.4667 15.27575392179859
STARLINK-5743           
1 55597U 23020AE  26140.16222405  .00000868  00000+0  41076-4 0  9996
2 55597  43.0026 310.3004 0001228 264.4547  95.6164 15.27575656179977
STARLINK-5756           
1 55598U 23020AF  26140.19691233 -.00000582  00000+0 -11620-4 0  9996
2 55598  43.0035 310.5263 0001916 268.5543  91.5089 15.27573295179970
STARLINK-5761           
1 55599U 23020AG  26140.20076832  .00001525  00000+0  64957-4 0  9998
2 55599  43.0057 310.5597 0001854 261.0317  99.0325 15.27570875179970
STARLINK-5755           
1 55600U 23020AH  26140.17635620  .00000182  00000+0  16133-4 0  9994
2 55600  43.0030 310.3943 0001053 271.5955  88.4776 15.27576121179974
STARLINK-5744           
1 55601U 23020AJ  26140.19689748  .00000934  00000+0  43456-4 0  9990
2 55601  43.0022 321.8083 0001186 260.6632  99.4085 15.27576459179841
STARLINK-5764           
1 55602U 23020AK  26139.87768903  .00000338  00000+0  21807-4 0  9999
2 55602  43.0039 312.4360 0001682 268.4764  91.5895 15.27578078179927
STARLINK-5735           
1 55603U 23020AL  26140.17252027 -.00001146  00000+0 -32151-4 0  9994
2 55603  43.0057 310.3728 0001014 270.6831  89.3905 15.27561507179973
STARLINK-5748           
1 55604U 23020AM  26139.71915389  .00001250  00000+0  54947-4 0  9991
2 55604  43.0022 298.2658 0001424 270.4003  89.6686 15.27577405180072
STARLINK-5725           
1 55605U 23020AN  26140.18021146  .00000289  00000+0  20019-4 0  9998
2 55605  43.0032 310.4240 0001020 271.4541  88.6194 15.27576481179971
STARLINK-5700           
1 55607U 23020AQ  26139.80200739  .00052658  00000+0  19268-2 0  9993
2 55607  43.0025 312.7475 0001484 266.9546  93.1136 15.27283356179915
STARLINK-5726           
1 55608U 23020AR  26139.80588141  .00001024  00000+0  46765-4 0  9995
2 55608  43.0059 312.7694 0002157 273.6316  86.4289 15.27573574179912
