OBJECT_NAME,OBJECT_ID,EPOCH,MEAN_MOTION,ECCENTRICITY,INCLINATION,RA_OF_ASC_NODE,ARG_OF_PERICENTER,MEAN_ANOMALY,EPHEMERIS_TYPE,CLASSIFICATION_TYPE,NORAD_CAT_ID,ELEMENT_SET_NO,REV_AT_EPOCH,BSTAR,MEAN_MOTION_DOT,MEAN_MOTION_DDOT
STARLINK-5751,2023-020H,2026-05-19T17:17:25.797408,15.27591091,.00010103,43.0016,298.2690,249.1612,110.9132,0,U,55576,999,18007,-.17128225E-3,-.4974E-4,0
STARLINK-5752,2023-020J,2026-05-19T20:28:40.670400,15.27579136,.0001713,43.0009,323.4611,257.8773,102.1887,0,U,55577,999,17979,.46676E-4,.1022E-4,0
STARLINK-5754,2023-020L,2026-05-19T21:33:15.501312,15.27572383,.0001386,43.0064,323.0155,273.7013,86.3680,0,U,55579,999,17980,.48231E-4,.1065E-4,0
STARLINK-5757,2023-020M,2026-05-20T02:57:10.005408,15.27580578,.0001339,43.0025,296.1299,272.1631,87.9067,0,U,55580,999,18013,.71473533E-4,.1705E-4,0
STARLINK-5753,2023-020N,2026-05-20T05:35:33.665856,15.27577560,.00012174,43.0007,328.0554,281.4519,78.6196,0,U,55581,999,17977,.8897876E-5,-.17E-6,0
STARLINK-5741,2023-020P,2026-05-20T04:25:03.247968,15.27575834,.00011496,43.0026,310.4562,262.1048,97.9673,0,U,55582,999,17997,.21530188E-4,.33E-5,0
STARLINK-5742,2023-020Q,2026-05-19T20:59:56.819616,15.27573904,.0001297,43.0036,322.8469,261.6790,98.3914,0,U,55583,999,17980,.30295E-5,-.179E-5,0
STARLINK-5736,2023-020R,2026-05-20T04:41:41.096256,15.27576974,.0001013,43.0034,321.8077,256.0529,104.0210,0,U,55584,999,17984,.36334292E-4,.738E-5,0
STARLINK-5769,2023-020S,2026-05-19T18:01:07.205376,15.27585024,.00023053,43.0052,313.2289,272.4073,87.6515,0,U,55585,999,17990,-.4002827E-5,-.373E-5,0
STARLINK-5767,2023-020T,2026-05-19T20:26:51.008928,15.27582069,.00013878,43.0016,323.5286,261.6554,98.4140,0,U,55586,999,17979,-.128908E-6,-.266E-5,0
STARLINK-5727,2023-020U,2026-05-19T20:17:34.702656,15.27577113,.0001482,43.0038,323.4055,267.0265,93.0417,0,U,55587,999,17979,.56328E-4,.1288E-4,0
STARLINK-5728,2023-020V,2026-05-19T20:21:17.936928,15.27574232,.00015877,43.0037,323.5026,265.1829,94.8841,0,U,55588,999,17979,.49748931E-4,.1107E-4,0
STARLINK-5697,2023-020W,2026-05-20T05:29:34.833696,15.27575259,.00018172,43.0059,321.1974,273.3173,86.7471,0,U,55589,999,17985,.11986333E-4,.67E-6,0
STARLINK-5762,2023-020X,2026-05-20T05:20:19.876128,15.27576901,.00012365,43.0034,321.1572,274.8373,85.2337,0,U,55590,999,17985,.35900995E-4,.726E-5,0
STARLINK-5760,2023-020Y,2026-05-19T20:15:45.282240,15.27584874,.00014305,43.0053,323.4736,265.2120,94.8568,0,U,55591,999,17979,.93631154E-4,.2315E-4,0
STARLINK-5759,2023-020Z,2026-05-20T04:54:25.551360,15.27576686,.0000982,43.0033,321.0170,264.9204,95.1536,0,U,55592,999,17985,.30734572E-4,.584E-5,0
STARLINK-5703,2023-020AA,2026-05-19T20:58:05.843136,15.27582134,.0001249,43.0031,322.8369,272.5274,87.5435,0,U,55593,999,17980,-.89199E-4,-.2716E-4,0
STARLINK-5750,2023-020AB,2026-05-20T04:59:58.428960,15.27576543,.00011228,43.0037,321.0470,269.5060,90.5663,0,U,55594,999,17985,.38955596E-4,.81E-5,0
STARLINK-5729,2023-020AD,2026-05-20T05:14:46.849920,15.27575392,.00011477,43.0034,321.1237,279.6055,80.4667,0,U,55596,999,17985,.7773763E-5,-.48E-6,0
STARLINK-5743,2023-020AE,2026-05-20T03:53:36.157920,15.27575656,.00012281,43.0026,310.3004,264.4547,95.6164,0,U,55597,999,17997,.41075781E-4,.868E-5,0
STARLINK-5756,2023-020AF,2026-05-20T04:43:33.225312,15.27573295,.00019164,43.0035,310.5263,268.5543,91.5089,0,U,55598,999,17997,-.1161969E-4,-.582E-5,0
STARLINK-5761,2023-020AG,2026-05-20T04:49:06.382848,15.27570875,.00018547,43.0057,310.5597,261.0317,99.0325,0,U,55599,999,17997,.64956744E-4,.1525E-4,0
STARLINK-5755,2023-020AH,2026-05-20T04:13:57.175680,15.27576121,.00010533,43.0030,310.3943,271.5955,88.4776,0,U,55600,999,17997,.16133475E-4,.182E-5,0
STARLINK-5744,2023-020AJ,2026-05-20T04:43:31.942272,15.27576459,.00011865,43.0022,321.8083,260.6632,99.4085,0,U,55601,999,17984,.43455842E-4,.934E-5,0
STARLINK-5764,2023-020AK,2026-05-19T21:03:52.332192,15.27578078,.0001682,43.0039,312.4360,268.4764,91.5895,0,U,55602,999,17992,.21807E-4,.338E-5,0
STARLINK-5735,2023-020AL,2026-05-20T04:08:25.751328,15.27561507,.00010149,43.0057,310.3728,270.6831,89.3905,0,U,55603,999,17997,-.32151073E-4,-.1146E-4,0
STARLINK-5748,2023-020AM,2026-05-19T17:15:34.896096,15.27577405,.00014244,43.0022,298.2658,270.4003,89.6686,0,U,55604,999,18007,.54947118E-4,.125E-4,0
STARLINK-5725,2023-020AN,2026-05-20T04:19:30.270144,15.27576481,.00010203,43.0032,310.4240,271.4541,88.6194,0,U,55605,999,17997,.20018742E-4,.289E-5,0
STARLINK-5700,2023-020AQ,2026-05-19T19:14:53.438496,15.27283356,.00014842,43.0025,312.7475,266.9546,93.1136,0,U,55607,999,17991,.19267745E-2,.52658E-3,0
STARLINK-5726,2023-020AR,2026-05-19T19:20:28.153824,15.27573574,.00021578,43.0059,312.7694,273.6316,86.4289,0,U,55608,999,17991,.4676528E-4,.1024E-4,0
